[
  {
    "OBJECT_NAME": "RESOURCESAT-2",
    "OBJECT_ID": "2011-015A",
    "EPOCH": "2025-05-31T19:45:43.651296",
    "MEAN_MOTION": 14.21578182,
    "ECCENTRICITY": 0.0005034,
    "INCLINATION": 98.8089,
    "RA_OF_ASC_NODE": 215.9657,
    "ARG_OF_PERICENTER": 227.6541,
    "MEAN_ANOMALY": 132.421,
    "EPHEMERIS_TYPE": 0,
    "CLASSIFICATION_TYPE": "U",
    "NORAD_CAT_ID": 37387,
    "ELEMENT_SET_NO": 999,
    "REV_AT_EPOCH": 73252,
    "BSTAR": 7.9164e-05,
    "MEAN_MOTION_DOT": 1.29e-06,
    "MEAN_MOTION_DDOT": 0
  },
  {
    "OBJECT_NAME": "HAIYANG-2A",
    "OBJECT_ID": "2011-043A",
    "EPOCH": "2025-05-31T20:53:14.525664",
    "MEAN_MOTION": 13.78815917,
    "ECCENTRICITY": 5.96e-05,
    "INCLINATION": 99.3321,
    "RA_OF_ASC_NODE": 155.7986,
    "ARG_OF_PERICENTER": 142.4297,
    "MEAN_ANOMALY": 217.6896,
    "EPHEMERIS_TYPE": 0,
    "CLASSIFICATION_TYPE": "U",
    "NORAD_CAT_ID": 37781,
    "ELEMENT_SET_NO": 999,
    "REV_AT_EPOCH": 69438,
    "BSTAR": 4.753e-05,
    "MEAN_MOTION_DOT": 4e-08,
    "MEAN_MOTION_DDOT": 0
  },
  {
    "OBJECT_NAME": "RASAT",
    "OBJECT_ID": "2011-044D",
    "EPOCH": "2025-05-31T20:46:15.062304",
    "MEAN_MOTION": 14.6757741,
    "ECCENTRICITY": 0.0019877,
    "INCLINATION": 98.0675,
    "RA_OF_ASC_NODE": 244.0253,
    "ARG_OF_PERICENTER": 323.8744,
    "MEAN_ANOMALY": 150.8284,
    "EPHEMERIS_TYPE": 0,
    "CLASSIFICATION_TYPE": "U",
    "NORAD_CAT_ID": 37791,
    "ELEMENT_SET_NO": 999,
    "REV_AT_EPOCH": 73726,
    "BSTAR": 0.00010541,
    "MEAN_MOTION_DOT": 5.51e-06,
    "MEAN_MOTION_DDOT": 0
  },
  {
    "OBJECT_NAME": "SRMSAT",
    "OBJECT_ID": "2011-058D",
    "EPOCH": "2025-05-31T11:17:02.503104",
    "MEAN_MOTION": 14.11432981,
    "ECCENTRICITY": 0.001171,
    "INCLINATION": 19.9706,
    "RA_OF_ASC_NODE": 209.6787,
    "ARG_OF_PERICENTER": 325.6305,
    "MEAN_ANOMALY": 62.57,
    "EPHEMERIS_TYPE": 0,
    "CLASSIFICATION_TYPE": "U",
    "NORAD_CAT_ID": 37841,
    "ELEMENT_SET_NO": 999,
    "REV_AT_EPOCH": 70382,
    "BSTAR": 7.0665e-05,
    "MEAN_MOTION_DOT": 3.95e-06,
    "MEAN_MOTION_DDOT": 0
  },
  {
    "OBJECT_NAME": "PLEIADES 1A",
    "OBJECT_ID": "2011-076F",
    "EPOCH": "2025-05-31T20:22:16.931712",
    "MEAN_MOTION": 14.58543976,
    "ECCENTRICITY": 0.0001098,
    "INCLINATION": 98.1983,
    "RA_OF_ASC_NODE": 227.3976,
    "ARG_OF_PERICENTER": 104.0664,
    "MEAN_ANOMALY": 13.2381,
    "EPHEMERIS_TYPE": 0,
    "CLASSIFICATION_TYPE": "U",
    "NORAD_CAT_ID": 38012,
    "ELEMENT_SET_NO": 999,
    "REV_AT_EPOCH": 71641,
    "BSTAR": 9.5401e-05,
    "MEAN_MOTION_DOT": 3.98e-06,
    "MEAN_MOTION_DDOT": 0
  },
  {
    "OBJECT_NAME": "ZIYUAN 1-02C (ZY 1-02C)",
    "OBJECT_ID": "2011-079A",
    "EPOCH": "2025-05-31T20:24:41.435712",
    "MEAN_MOTION": 14.37759664,
    "ECCENTRICITY": 0.0006655,
    "INCLINATION": 98.4535,
    "RA_OF_ASC_NODE": 221.2218,
    "ARG_OF_PERICENTER": 19.563,
    "MEAN_ANOMALY": 105.9969,
    "EPHEMERIS_TYPE": 0,
    "CLASSIFICATION_TYPE": "U",
    "NORAD_CAT_ID": 38038,
    "ELEMENT_SET_NO": 999,
    "REV_AT_EPOCH": 70445,
    "BSTAR": 0.00017242,
    "MEAN_MOTION_DOT": 4.76e-06,
    "MEAN_MOTION_DDOT": 0
  },
  {
    "OBJECT_NAME": "ZIYUAN 3-1 (ZY 3-1)",
    "OBJECT_ID": "2012-001A",
    "EPOCH": "2025-05-31T20:01:48.010944",
    "MEAN_MOTION": 15.52458223,
    "ECCENTRICITY": 0.0002204,
    "INCLINATION": 97.1985,
    "RA_OF_ASC_NODE": 216.4199,
    "ARG_OF_PERICENTER": 353.2051,
    "MEAN_ANOMALY": 6.9172,
    "EPHEMERIS_TYPE": 0,
    "CLASSIFICATION_TYPE": "U",
    "NORAD_CAT_ID": 38046,
    "ELEMENT_SET_NO": 999,
    "REV_AT_EPOCH": 74467,
    "BSTAR": 0.00031071,
    "MEAN_MOTION_DOT": 0.00018924,
    "MEAN_MOTION_DDOT": 0
  },
  {
    "OBJECT_NAME": "ARIRANG-3 (KOMPSAT-3)",
    "OBJECT_ID": "2012-025B",
    "EPOCH": "2025-05-31T20:10:42.610944",
    "MEAN_MOTION": 14.62488281,
    "ECCENTRICITY": 0.0006154,
    "INCLINATION": 98.3057,
    "RA_OF_ASC_NODE": 105.3447,
    "ARG_OF_PERICENTER": 210.8183,
    "MEAN_ANOMALY": 149.2657,
    "EPHEMERIS_TYPE": 0,
    "CLASSIFICATION_TYPE": "U",
    "NORAD_CAT_ID": 38338,
    "ELEMENT_SET_NO": 999,
    "REV_AT_EPOCH": 69572,
    "BSTAR": 0.00011047,
    "MEAN_MOTION_DOT": 5.11e-06,
    "MEAN_MOTION_DDOT": 0
  },
  {
    "OBJECT_NAME": "EXACTVIEW-1 (ADS-1B)",
    "OBJECT_ID": "2012-039C",
    "EPOCH": "2025-05-31T12:37:36.576192",
    "MEAN_MOTION": 14.24813676,
    "ECCENTRICITY": 0.0010843,
    "INCLINATION": 98.9521,
    "RA_OF_ASC_NODE": 255.9821,
    "ARG_OF_PERICENTER": 185.9446,
    "MEAN_ANOMALY": 174.1605,
    "EPHEMERIS_TYPE": 0,
    "CLASSIFICATION_TYPE": "U",
    "NORAD_CAT_ID": 38709,
    "ELEMENT_SET_NO": 999,
    "REV_AT_EPOCH": 66835,
    "BSTAR": 8.2858e-05,
    "MEAN_MOTION_DOT": 1.47e-06,
    "MEAN_MOTION_DDOT": 0
  },
  {
    "OBJECT_NAME": "SPOT 6",
    "OBJECT_ID": "2012-047A",
    "EPOCH": "2025-05-31T20:13:40.989792",
    "MEAN_MOTION": 14.58551103,
    "ECCENTRICITY": 0.0001085,
    "INCLINATION": 98.1776,
    "RA_OF_ASC_NODE": 219.9282,
    "ARG_OF_PERICENTER": 101.3317,
    "MEAN_ANOMALY": 258.8004,
    "EPHEMERIS_TYPE": 0,
    "CLASSIFICATION_TYPE": "U",
    "NORAD_CAT_ID": 38755,
    "ELEMENT_SET_NO": 999,
    "REV_AT_EPOCH": 67749,
    "BSTAR": 9.2854e-05,
    "MEAN_MOTION_DOT": 3.86e-06,
    "MEAN_MOTION_DDOT": 0
  },
  {
    "OBJECT_NAME": "PLEIADES 1B",
    "OBJECT_ID": "2012-068A",
    "EPOCH": "2025-05-31T20:38:57.875712",
    "MEAN_MOTION": 14.58537424,
    "ECCENTRICITY": 0.0001293,
    "INCLINATION": 98.1955,
    "RA_OF_ASC_NODE": 227.3585,
    "ARG_OF_PERICENTER": 99.4114,
    "MEAN_ANOMALY": 260.7231,
    "EPHEMERIS_TYPE": 0,
    "CLASSIFICATION_TYPE": "U",
    "NORAD_CAT_ID": 39019,
    "ELEMENT_SET_NO": 999,
    "REV_AT_EPOCH": 66526,
    "BSTAR": 9.3863e-05,
    "MEAN_MOTION_DOT": 3.91e-06,
    "MEAN_MOTION_DDOT": 0
  },
  {
    "OBJECT_NAME": "GOKTURK 2",
    "OBJECT_ID": "2012-073A",
    "EPOCH": "2025-05-31T20:00:26.405280",
    "MEAN_MOTION": 14.74992156,
    "ECCENTRICITY": 0.0002011,
    "INCLINATION": 97.7113,
    "RA_OF_ASC_NODE": 2.8777,
    "ARG_OF_PERICENTER": 102.1937,
    "MEAN_ANOMALY": 257.9498,
    "EPHEMERIS_TYPE": 0,
    "CLASSIFICATION_TYPE": "U",
    "NORAD_CAT_ID": 39030,
    "ELEMENT_SET_NO": 999,
    "REV_AT_EPOCH": 66831,
    "BSTAR": 7.9501e-05,
    "MEAN_MOTION_DOT": 4.87e-06,
    "MEAN_MOTION_DDOT": 0
  },
  {
    "OBJECT_NAME": "LANDSAT 8",
    "OBJECT_ID": "2013-008A",
    "EPOCH": "2025-05-31T20:10:08.550336",
    "MEAN_MOTION": 14.57113578,
    "ECCENTRICITY": 0.0001343,
    "INCLINATION": 98.2259,
    "RA_OF_ASC_NODE": 222.526,
    "ARG_OF_PERICENTER": 98.6203,
    "MEAN_ANOMALY": 261.5147,
    "EPHEMERIS_TYPE": 0,
    "CLASSIFICATION_TYPE": "U",
    "NORAD_CAT_ID": 39084,
    "ELEMENT_SET_NO": 999,
    "REV_AT_EPOCH": 65418,
    "BSTAR": 9.7674e-05,
    "MEAN_MOTION_DOT": 3.95e-06,
    "MEAN_MOTION_DDOT": 0
  },
  {
    "OBJECT_NAME": "SARAL",
    "OBJECT_ID": "2013-009A",
    "EPOCH": "2025-05-31T14:25:48.082080",
    "MEAN_MOTION": 14.32703075,
    "ECCENTRICITY": 0.0001874,
    "INCLINATION": 98.5536,
    "RA_OF_ASC_NODE": 338.0629,
    "ARG_OF_PERICENTER": 13.6516,
    "MEAN_ANOMALY": 346.4719,
    "EPHEMERIS_TYPE": 0,
    "CLASSIFICATION_TYPE": "U",
    "NORAD_CAT_ID": 39086,
    "ELEMENT_SET_NO": 999,
    "REV_AT_EPOCH": 64096,
    "BSTAR": 5.2036e-05,
    "MEAN_MOTION_DOT": 9.8e-07,
    "MEAN_MOTION_DDOT": 0
  }
]