RESOURCESAT-2           
1 37387U 11015A   25151.82342189  .00000129  00000+0  79164-4 0  9999
2 37387  98.8089 215.9657 0005034 227.6541 132.4210 14.21578182732527
HAIYANG-2A              
1 37781U 11043A   25151.87030701  .00000004  00000+0  47530-4 0  9991
2 37781  99.3321 155.7986 0000596 142.4297 217.6896 13.78815917694384
RASAT                   
1 37791U 11044D   25151.86545211  .00000551  00000+0  10541-3 0  9997
2 37791  98.0675 244.0253 0019877 323.8744 150.8284 14.67577410737262
SRMSAT                  
1 37841U 11058D   25151.47016786  .00000395  00000+0  70665-4 0  9995
2 37841  19.9706 209.6787 0011710 325.6305  62.5700 14.11432981703824
PLEIADES 1A             
1 38012U 11076F   25151.84880708  .00000398  00000+0  95401-4 0  9998
2 38012  98.1983 227.3976 0001098 104.0664  13.2381 14.58543976716418
ZIYUAN 1-02C (ZY 1-02C) 
1 38038U 11079A   25151.85047958  .00000476  00000+0  17242-3 0  9995
2 38038  98.4535 221.2218 0006655  19.5630 105.9969 14.37759664704453
ZIYUAN 3-1 (ZY 3-1)     
1 38046U 12001A   25151.83458346  .00018924  00000+0  31071-3 0  9998
2 38046  97.1985 216.4199 0002204 353.2051   6.9172 15.52458223744671
ARIRANG-3 (KOMPSAT-3)   
1 38338U 12025B   25151.84077096  .00000511  00000+0  11047-3 0  9992
2 38338  98.3057 105.3447 0006154 210.8183 149.2657 14.62488281695729
EXACTVIEW-1 (ADS-1B)    
1 38709U 12039C   25151.52611778  .00000147  00000+0  82858-4 0  9999
2 38709  98.9521 255.9821 0010843 185.9446 174.1605 14.24813676668352
SPOT 6                  
1 38755U 12047A   25151.84283553  .00000386  00000+0  92854-4 0  9992
2 38755  98.1776 219.9282 0001085 101.3317 258.8004 14.58551103677494
PLEIADES 1B             
1 39019U 12068A   25151.86039208  .00000391  00000+0  93863-4 0  9994
2 39019  98.1955 227.3585 0001293  99.4114 260.7231 14.58537424665265
GOKTURK 2               
1 39030U 12073A   25151.83363895  .00000487  00000+0  79501-4 0  9991
2 39030  97.7113   2.8777 0002011 102.1937 257.9498 14.74992156668319
LANDSAT 8               
1 39084U 13008A   25151.84037674  .00000395  00000+0  97674-4 0  9992
2 39084  98.2259 222.5260 0001343  98.6203 261.5147 14.57113578654181
SARAL                   
1 39086U 13009A   25151.60125095  .00000098  00000+0  52036-4 0  9997
2 39086  98.5536 338.0629 0001874  13.6516 346.4719 14.32703075640968
